{
  "norad_id": 56359,
  "name": "STARLINK-5551",
  "history": [
    {
      "epoch": "2026-04-11T21:02:38.754816Z",
      "apogee_km": 563.0209851202935,
      "perigee_km": 559.0434533238358,
      "latitude_deg": -3.684595553865406e-05,
      "longitude_deg": -52.98040254277751,
      "height_km": 563.7550360275445,
      "semi_major_axis_km": 6939.169219222064,
      "eccentricity": 0.0002866,
      "inclination_deg": 97.603,
      "raan_deg": 102.7711,
      "arg_perigee_deg": 80.3775,
      "mean_anomaly_deg": 279.7773,
      "mean_motion_rev_day": 15.01901823
    },
    {
      "epoch": "2026-04-13T06:00:02.000160Z",
      "apogee_km": 556.7354568034416,
      "perigee_km": 552.8361037149125,
      "latitude_deg": -44.306256882193914,
      "longitude_deg": -14.790158831270164,
      "height_km": 573.5470135460522,
      "semi_major_axis_km": 6932.922780259177,
      "eccentricity": 0.00028122,
      "inclination_deg": 97.6039,
      "raan_deg": 104.1077,
      "arg_perigee_deg": 77.6504,
      "mean_anomaly_deg": 146.8639,
      "mean_motion_rev_day": 15.0393206
    },
    {
      "epoch": "2026-04-14T20:00:01.999008Z",
      "apogee_km": 551.3038703853208,
      "perigee_km": 549.4110057048465,
      "latitude_deg": 24.66779160776868,
      "longitude_deg": 146.15945982287082,
      "height_km": 553.8528965691994,
      "semi_major_axis_km": 6928.494438045083,
      "eccentricity": 0.0001366,
      "inclination_deg": 97.6028,
      "raan_deg": 105.6766,
      "arg_perigee_deg": 41.2336,
      "mean_anomaly_deg": 113.8794,
      "mean_motion_rev_day": 15.05374146
    },
    {
      "epoch": "2026-04-15T20:00:01.999008Z",
      "apogee_km": 551.1817226017711,
      "perigee_km": 548.0670010934837,
      "latitude_deg": 8.222102579925131,
      "longitude_deg": 143.76204591039362,
      "height_km": 551.9402186128908,
      "semi_major_axis_km": 6927.761361847627,
      "eccentricity": 0.0002248,
      "inclination_deg": 97.6024,
      "raan_deg": 106.6611,
      "arg_perigee_deg": 83.6707,
      "mean_anomaly_deg": 87.9388,
      "mean_motion_rev_day": 15.05613094
    },
    {
      "epoch": "2026-04-16T20:00:01.999008Z",
      "apogee_km": 551.2340947175544,
      "perigee_km": 547.9752850266386,
      "latitude_deg": -8.6312580679901,
      "longitude_deg": 141.50885281011276,
      "height_km": 554.6116704469213,
      "semi_major_axis_km": 6927.741689872096,
      "eccentricity": 0.0002352,
      "inclination_deg": 97.6023,
      "raan_deg": 107.6471,
      "arg_perigee_deg": 83.6449,
      "mean_anomaly_deg": 104.8615,
      "mean_motion_rev_day": 15.05619507
    },
    {
      "epoch": "2026-04-18T00:00:04.000320Z",
      "apogee_km": 551.2107566582808,
      "perigee_km": 547.8283976110597,
      "latitude_deg": 28.10060406059307,
      "longitude_deg": -101.40856305364623,
      "height_km": 552.1255376130027,
      "semi_major_axis_km": 6927.6565771346695,
      "eccentricity": 0.00024412,
      "inclination_deg": 97.6017,
      "raan_deg": 108.7975,
      "arg_perigee_deg": 83.3238,
      "mean_anomaly_deg": 305.0258,
      "mean_motion_rev_day": 15.05647254
    },
    {
      "epoch": "2026-04-18T17:25:15.879072Z",
      "apogee_km": 551.0360086887886,
      "perigee_km": 548.0127772568958,
      "latitude_deg": -6.909002980982816e-07,
      "longitude_deg": 1.3551920484648476,
      "height_km": 552.4725005351322,
      "semi_major_axis_km": 6927.661392972842,
      "eccentricity": 0.0002182,
      "inclination_deg": 97.6017,
      "raan_deg": 109.5121,
      "arg_perigee_deg": 85.6939,
      "mean_anomaly_deg": 274.4537,
      "mean_motion_rev_day": 15.05645684
    },
    {
      "epoch": "2026-04-19T17:20:45.339936Z",
      "apogee_km": 551.0214677854146,
      "perigee_km": 547.9816199923571,
      "latitude_deg": 8.193861470070561e-06,
      "longitude_deg": 2.481577672949444,
      "height_km": 552.288568980422,
      "semi_major_axis_km": 6927.638543888886,
      "eccentricity": 0.0002194,
      "inclination_deg": 97.5978,
      "raan_deg": 110.4938,
      "arg_perigee_deg": 79.5875,
      "mean_anomaly_deg": 280.5599,
      "mean_motion_rev_day": 15.05653133
    },
    {
      "epoch": "2026-04-19T17:20:45.340800Z",
      "apogee_km": 551.0217448909561,
      "perigee_km": 547.9813428868156,
      "latitude_deg": 3.7185063421152977e-06,
      "longitude_deg": 2.4815746567905346,
      "height_km": 552.2885188845623,
      "semi_major_axis_km": 6927.638543888886,
      "eccentricity": 0.00021944,
      "inclination_deg": 97.5978,
      "raan_deg": 110.4938,
      "arg_perigee_deg": 79.5875,
      "mean_anomaly_deg": 280.5599,
      "mean_motion_rev_day": 15.05653133
    },
    {
      "epoch": "2026-04-21T17:11:46.423392Z",
      "apogee_km": 551.88752467838,
      "perigee_km": 547.2196467617223,
      "latitude_deg": -4.052351760882294e-05,
      "longitude_deg": 4.725123265387355,
      "height_km": 552.5147243791805,
      "semi_major_axis_km": 6927.690585720051,
      "eccentricity": 0.0003369,
      "inclination_deg": 97.5949,
      "raan_deg": 112.457,
      "arg_perigee_deg": 87.5826,
      "mean_anomaly_deg": 272.5786,
      "mean_motion_rev_day": 15.05636167
    },
    {
      "epoch": "2026-04-22T15:31:32.833056Z",
      "apogee_km": 550.5138317822893,
      "perigee_km": 548.5726957723791,
      "latitude_deg": -6.50239741126906e-05,
      "longitude_deg": 29.77640821590272,
      "height_km": 552.521392475194,
      "semi_major_axis_km": 6927.6802637773335,
      "eccentricity": 0.0001401,
      "inclination_deg": 97.5836,
      "raan_deg": 113.3687,
      "arg_perigee_deg": 84.9543,
      "mean_anomaly_deg": 275.1843,
      "mean_motion_rev_day": 15.05639532
    },
    {
      "epoch": "2026-04-22T23:30:03.051936Z",
      "apogee_km": 550.990264773297,
      "perigee_km": 548.0601407680133,
      "latitude_deg": 3.737959231819277e-05,
      "longitude_deg": -89.84794225926682,
      "height_km": 552.3811862524406,
      "semi_major_axis_km": 6927.662202770655,
      "eccentricity": 0.00021148,
      "inclination_deg": 97.5831,
      "raan_deg": 113.6978,
      "arg_perigee_deg": 81.9057,
      "mean_anomaly_deg": 278.241,
      "mean_motion_rev_day": 15.0564542
    },
    {
      "epoch": "2026-04-24T15:22:33.253824Z",
      "apogee_km": 550.700155429914,
      "perigee_km": 548.4361813808791,
      "latitude_deg": -6.301067044374652e-06,
      "longitude_deg": 32.020809554981206,
      "height_km": 551.9663954357487,
      "semi_major_axis_km": 6927.705168405397,
      "eccentricity": 0.0001634,
      "inclination_deg": 97.5751,
      "raan_deg": 115.33,
      "arg_perigee_deg": 53.9923,
      "mean_anomaly_deg": 306.1455,
      "mean_motion_rev_day": 15.05631413
    },
    {
      "epoch": "2026-04-25T13:42:21.115008Z",
      "apogee_km": 550.7943799722689,
      "perigee_km": 548.2533139735997,
      "latitude_deg": -9.255372662230956e-05,
      "longitude_deg": 57.067840071726415,
      "height_km": 552.3416357081743,
      "semi_major_axis_km": 6927.6608469729335,
      "eccentricity": 0.0001834,
      "inclination_deg": 97.5728,
      "raan_deg": 116.2435,
      "arg_perigee_deg": 78.8678,
      "mean_anomaly_deg": 281.2754,
      "mean_motion_rev_day": 15.05645862
    },
    {
      "epoch": "2026-04-26T23:12:04.747104Z",
      "apogee_km": 550.8192211065698,
      "perigee_km": 548.350735211312,
      "latitude_deg": 3.547269960174057e-05,
      "longitude_deg": -85.36928613261007,
      "height_km": 551.6062119962359,
      "semi_major_axis_km": 6927.721978158941,
      "eccentricity": 0.00017816,
      "inclination_deg": 97.5725,
      "raan_deg": 117.6138,
      "arg_perigee_deg": 32.3166,
      "mean_anomaly_deg": 327.817,
      "mean_motion_rev_day": 15.05625933
    },
    {
      "epoch": "2026-04-27T13:33:21.210048Z",
      "apogee_km": 550.8966663719793,
      "perigee_km": 548.1491564511125,
      "latitude_deg": -9.165142279817076e-05,
      "longitude_deg": 59.3072141795414,
      "height_km": 552.5426002620034,
      "semi_major_axis_km": 6927.659911411545,
      "eccentricity": 0.0001983,
      "inclination_deg": 97.5658,
      "raan_deg": 118.1984,
      "arg_perigee_deg": 88.1923,
      "mean_anomaly_deg": 271.953,
      "mean_motion_rev_day": 15.05646167
    }
  ]
}